[{"OBJECT_NAME":"STARLINK-2576","OBJECT_ID":"2021-038AZ","EPOCH":"2026-03-09T22:53:25.929312","MEAN_MOTION":15.30182761,"ECCENTRICITY":0.00010897,"INCLINATION":53.1586,"RA_OF_ASC_NODE":331.3901,"ARG_OF_PERICENTER":73.3268,"MEAN_ANOMALY":286.7852,"EPHEMERIS_TYPE":0,"CLASSIFICATION_TYPE":"U","NORAD_CAT_ID":48400,"ELEMENT_SET_NO":999,"REV_AT_EPOCH":26748,"BSTAR":-3.3990603e-5,"MEAN_MOTION_DOT":-1.365e-5,"MEAN_MOTION_DDOT":0},{"OBJECT_NAME":"TRANSPORTER-1 OBJECT M","OBJECT_ID":"2021-006M","EPOCH":"2026-03-09T22:05:37.843296","MEAN_MOTION":15.3227845,"ECCENTRICITY":0.00102759,"INCLINATION":97.2377,"RA_OF_ASC_NODE":116.7915,"ARG_OF_PERICENTER":187.5492,"MEAN_ANOMALY":172.5597,"EPHEMERIS_TYPE":0,"CLASSIFICATION_TYPE":"U","NORAD_CAT_ID":47424,"ELEMENT_SET_NO":999,"REV_AT_EPOCH":28439,"BSTAR":0.00023985652,"MEAN_MOTION_DOT":7.411e-5,"MEAN_MOTION_DDOT":0}]
